{"type": "FeatureCollection", "features": [ {"type": "Feature", "properties": {"norad_id": 34571, "name": "COSMOS 2251 DEB", "group": "cosmos-2251-debris", "lat": 41.0494760169292, "lon": -26.354949966504716, "alt_km": 705.2402190623479, "timestamp": "2025-12-20T09:36:02.043763+00:00", "meta": {"OBJECT_NAME": "COSMOS 2251 DEB", "OBJECT_ID": "1993-036VH", "EPOCH": "2025-12-18T22:10:04.528128", "MEAN_MOTION": 14.48905766, "ECCENTRICITY": 0.0065409, "INCLINATION": 74.0384, "RA_OF_ASC_NODE": 170.8432, "ARG_OF_PERICENTER": 204.4185, "MEAN_ANOMALY": 155.3874, "EPHEMERIS_TYPE": 0, "CLASSIFICATION_TYPE": "U", "NORAD_CAT_ID": 34571, "ELEMENT_SET_NO": 999, "REV_AT_EPOCH": 87383, "BSTAR": 0.0018317465, "MEAN_MOTION_DOT": 7.102e-05, "MEAN_MOTION_DDOT": 0}, "tle": {"line1": "1 34571U 93036VH  25352.92366352  .00007102  00000+0  18317-2 0  9995", "line2": "2 34571  74.0384 170.8432 0065409 204.4185 155.3874 14.48905766873833"}}, "geometry": {"type": "Point", "coordinates": [-26.354949966504716, 41.0494760169292]}}, {"type": "Feature", "properties": {"norad_id": 34572, "name": "COSMOS 2251 DEB", "group": "cosmos-2251-debris", "lat": 31.651892534584796, "lon": 111.27656424355311, "alt_km": 756.8225839544739, "timestamp": "2025-12-20T09:36:02.043773+00:00", "meta": {"OBJECT_NAME": "COSMOS 2251 DEB", "OBJECT_ID": "1993-036VJ", "EPOCH": "2025-12-19T08:52:33.083040", "MEAN_MOTION": 14.50137544, "ECCENTRICITY": 0.0061983, "INCLINATION": 74.0111, "RA_OF_ASC_NODE": 103.0332, "ARG_OF_PERICENTER": 175.7717, "MEAN_ANOMALY": 241.8877, "EPHEMERIS_TYPE": 0, "CLASSIFICATION_TYPE": "U", "NORAD_CAT_ID": 34572, "ELEMENT_SET_NO": 999, "REV_AT_EPOCH": 87474, "BSTAR": 0.0016719, "MEAN_MOTION_DOT": 6.633e-05, "MEAN_MOTION_DDOT": 0}, "tle": {"line1": "1 34572U 93036VJ  25353.36982735  .00006633  00000+0  16719-2 0  9996", "line2": "2 34572  74.0111 103.0332 0061983 175.7717 241.8877 14.50137544874742"}}, "geometry": {"type": "Point", "coordinates": [111.27656424355311, 31.651892534584796]}}, {"type": "Feature", "properties": {"norad_id": 34574, "name": "COSMOS 2251 DEB", "group": "cosmos-2251-debris", "lat": 49.237515967264976, "lon": -171.05779139810627, "alt_km": 646.430941110063, "timestamp": "2025-12-20T09:36:02.043784+00:00", "meta": {"OBJECT_NAME": "COSMOS 2251 DEB", "OBJECT_ID": "1993-036VL", "EPOCH": "2025-12-20T04:25:37.603200", "MEAN_MOTION": 14.70677211, "ECCENTRICITY": 0.0067108, "INCLINATION": 74.0681, "RA_OF_ASC_NODE": 28.7114, "ARG_OF_PERICENTER": 47.3992, "MEAN_ANOMALY": 19.0044, "EPHEMERIS_TYPE": 0, "CLASSIFICATION_TYPE": "U", "NORAD_CAT_ID": 34574, "ELEMENT_SET_NO": 999, "REV_AT_EPOCH": 88888, "BSTAR": 0.0005534, "MEAN_MOTION_DOT": 3.459e-05, "MEAN_MOTION_DDOT": 0}, "tle": {"line1": "1 34574U 93036VL  25354.18446300  .00003459  00000+0  55340-3 0  9999", "line2": "2 34574  74.0681  28.7114 0067108  47.3992  19.0044 14.70677211888884"}}, "geometry": {"type": "Point", "coordinates": [-171.05779139810627, 49.237515967264976]}}, {"type": "Feature", "properties": {"norad_id": 34576, "name": "COSMOS 2251 DEB", "group": "cosmos-2251-debris", "lat": 36.46791498205977, "lon": 135.9004589527794, "alt_km": 709.2198678065224, "timestamp": "2025-12-20T09:36:02.043795+00:00", "meta": {"OBJECT_NAME": "COSMOS 2251 DEB", "OBJECT_ID": "1993-036VN", "EPOCH": "2025-12-19T15:21:26.249760", "MEAN_MOTION": 14.55469677, "ECCENTRICITY": 0.0008223, "INCLINATION": 74.0343, "RA_OF_ASC_NODE": 125.1243, "ARG_OF_PERICENTER": 262.3221, "MEAN_ANOMALY": 114.6335, "EPHEMERIS_TYPE": 0, "CLASSIFICATION_TYPE": "U", "NORAD_CAT_ID": 34576, "ELEMENT_SET_NO": 999, "REV_AT_EPOCH": 88567, "BSTAR": 0.00058339, "MEAN_MOTION_DOT": 2.511e-05, "MEAN_MOTION_DDOT": 0}, "tle": {"line1": "1 34576U 93036VN  25353.63988715  .00002511  00000+0  58339-3 0  9990", "line2": "2 34576  74.0343 125.1243 0008223 262.3221 114.6335 14.55469677885670"}}, "geometry": {"type": "Point", "coordinates": [135.9004589527794, 36.46791498205977]}}, {"type": "Feature", "properties": {"norad_id": 34579, "name": "COSMOS 2251 DEB", "group": "cosmos-2251-debris", "lat": -21.77728673732655, "lon": -156.92813758938703, "alt_km": 736.1753161219776, "timestamp": "2025-12-20T09:36:02.043805+00:00", "meta": {"OBJECT_NAME": "COSMOS 2251 DEB", "OBJECT_ID": "1993-036VR", "EPOCH": "2025-12-20T00:19:30.840096", "MEAN_MOTION": 14.45326726, "ECCENTRICITY": 0.0027533, "INCLINATION": 74.0517, "RA_OF_ASC_NODE": 210.3511, "ARG_OF_PERICENTER": 277.9153, "MEAN_ANOMALY": 209.157, "EPHEMERIS_TYPE": 0, "CLASSIFICATION_TYPE": "U", "NORAD_CAT_ID": 34579, "ELEMENT_SET_NO": 999, "REV_AT_EPOCH": 88279, "BSTAR": 0.0002639, "MEAN_MOTION_DOT": 9.04e-06, "MEAN_MOTION_DDOT": 0}, "tle": {"line1": "1 34579U 93036VR  25354.01355139  .00000904  00000+0  26390-3 0  9990", "line2": "2 34579  74.0517 210.3511 0027533 277.9153 209.1570 14.45326726882799"}}, "geometry": {"type": "Point", "coordinates": [-156.92813758938703, -21.77728673732655]}}, {"type": "Feature", "properties": {"norad_id": 34582, "name": "COSMOS 2251 DEB", "group": "cosmos-2251-debris", "lat": -38.86670985968732, "lon": 91.48388472529163, "alt_km": 781.9539380962524, "timestamp": "2025-12-20T09:36:02.043815+00:00", "meta": {"OBJECT_NAME": "COSMOS 2251 DEB", "OBJECT_ID": "1993-036VU", "EPOCH": "2025-12-20T03:35:24.025632", "MEAN_MOTION": 14.43360763, "ECCENTRICITY": 0.0048271, "INCLINATION": 74.0201, "RA_OF_ASC_NODE": 258.5968, "ARG_OF_PERICENTER": 7.1038, "MEAN_ANOMALY": 353.0791, "EPHEMERIS_TYPE": 0, "CLASSIFICATION_TYPE": "U", "NORAD_CAT_ID": 34582, "ELEMENT_SET_NO": 999, "REV_AT_EPOCH": 88054, "BSTAR": 0.0005271, "MEAN_MOTION_DOT": 1.776e-05, "MEAN_MOTION_DDOT": 0}, "tle": {"line1": "1 34582U 93036VU  25354.14958363  .00001776  00000+0  52710-3 0  9999", "line2": "2 34582  74.0201 258.5968 0048271   7.1038 353.0791 14.43360763880542"}}, "geometry": {"type": "Point", "coordinates": [91.48388472529163, -38.86670985968732]}}, {"type": "Feature", "properties": {"norad_id": 34588, "name": "COSMOS 2251 DEB", "group": "cosmos-2251-debris", "lat": -55.96248200880404, "lon": 99.12291069728398, "alt_km": 752.948139566367, "timestamp": "2025-12-20T09:36:02.043825+00:00", "meta": {"OBJECT_NAME": "COSMOS 2251 DEB", "OBJECT_ID": "1993-036WA", "EPOCH": "2025-12-20T04:02:10.435776", "MEAN_MOTION": 14.42041943, "ECCENTRICITY": 0.0019279, "INCLINATION": 74.0429, "RA_OF_ASC_NODE": 254.4907, "ARG_OF_PERICENTER": 306.4154, "MEAN_ANOMALY": 170.1426, "EPHEMERIS_TYPE": 0, "CLASSIFICATION_TYPE": "U", "NORAD_CAT_ID": 34588, "ELEMENT_SET_NO": 999, "REV_AT_EPOCH": 88057, "BSTAR": 0.00029792, "MEAN_MOTION_DOT": 9.54e-06, "MEAN_MOTION_DDOT": 0}, "tle": {"line1": "1 34588U 93036WA  25354.16817634  .00000954  00000+0  29792-3 0  9993", "line2": "2 34588  74.0429 254.4907 0019279 306.4154 170.1426 14.42041943880579"}}, "geometry": {"type": "Point", "coordinates": [99.12291069728398, -55.96248200880404]}}, {"type": "Feature", "properties": {"norad_id": 34589, "name": "COSMOS 2251 DEB", "group": "cosmos-2251-debris", "lat": -18.60025753750524, "lon": 37.41084502153366, "alt_km": 762.9371704405539, "timestamp": "2025-12-20T09:36:02.043836+00:00", "meta": {"OBJECT_NAME": "COSMOS 2251 DEB", "OBJECT_ID": "1993-036WB", "EPOCH": "2025-12-19T13:38:04.639200", "MEAN_MOTION": 13.86059262, "ECCENTRICITY": 0.0252128, "INCLINATION": 73.925, "RA_OF_ASC_NODE": 44.3965, "ARG_OF_PERICENTER": 346.3595, "MEAN_ANOMALY": 165.0467, "EPHEMERIS_TYPE": 0, "CLASSIFICATION_TYPE": "U", "NORAD_CAT_ID": 34589, "ELEMENT_SET_NO": 999, "REV_AT_EPOCH": 84806, "BSTAR": 0.00027367, "MEAN_MOTION_DOT": 3.8e-06, "MEAN_MOTION_DDOT": 0}, "tle": {"line1": "1 34589U 93036WB  25353.56810925  .00000380  00000+0  27367-3 0  9992", "line2": "2 34589  73.9250  44.3965 0252128 346.3595 165.0467 13.86059262848060"}}, "geometry": {"type": "Point", "coordinates": [37.41084502153366, -18.60025753750524]}}, {"type": "Feature", "properties": {"norad_id": 34590, "name": "COSMOS 2251 DEB", "group": "cosmos-2251-debris", "lat": 56.298415818190705, "lon": -26.53796055115257, "alt_km": 657.6924635939276, "timestamp": "2025-12-20T09:36:02.043849+00:00", "meta": {"OBJECT_NAME": "COSMOS 2251 DEB", "OBJECT_ID": "1993-036WC", "EPOCH": "2025-12-19T05:33:46.179072", "MEAN_MOTION": 14.5483298, "ECCENTRICITY": 0.0067997, "INCLINATION": 74.0441, "RA_OF_ASC_NODE": 310.2692, "ARG_OF_PERICENTER": 77.9732, "MEAN_ANOMALY": 346.1753, "EPHEMERIS_TYPE": 0, "CLASSIFICATION_TYPE": "U", "NORAD_CAT_ID": 34590, "ELEMENT_SET_NO": 999, "REV_AT_EPOCH": 89215, "BSTAR": 0.00010011, "MEAN_MOTION_DOT": 4.13e-06, "MEAN_MOTION_DDOT": 0}, "tle": {"line1": "1 34590U 93036WC  25353.23178448  .00000413  00000+0  10011-3 0  9990", "line2": "2 34590  74.0441 310.2692 0067997  77.9732 346.1753 14.54832980892157"}}, "geometry": {"type": "Point", "coordinates": [-26.53796055115257, 56.298415818190705]}}, {"type": "Feature", "properties": {"norad_id": 34609, "name": "COSMOS 2251 DEB", "group": "cosmos-2251-debris", "lat": 1.126574928499727, "lon": 93.05083242133499, "alt_km": 753.787192265143, "timestamp": "2025-12-20T09:36:02.043859+00:00", "meta": {"OBJECT_NAME": "COSMOS 2251 DEB", "OBJECT_ID": "1993-036WE", "EPOCH": "2025-12-20T00:00:03.081024", "MEAN_MOTION": 14.21815971, "ECCENTRICITY": 0.0145546, "INCLINATION": 73.7338, "RA_OF_ASC_NODE": 93.4526, "ARG_OF_PERICENTER": 311.81, "MEAN_ANOMALY": 161.6446, "EPHEMERIS_TYPE": 0, "CLASSIFICATION_TYPE": "U", "NORAD_CAT_ID": 34609, "ELEMENT_SET_NO": 999, "REV_AT_EPOCH": 86735, "BSTAR": 0.00053132, "MEAN_MOTION_DOT": 1.274e-05, "MEAN_MOTION_DDOT": 0}, "tle": {"line1": "1 34609U 93036WE  25354.00003566  .00001274  00000+0  53132-3 0  9992", "line2": "2 34609  73.7338  93.4526 0145546 311.8100 161.6446 14.21815971867359"}}, "geometry": {"type": "Point", "coordinates": [93.05083242133499, 1.126574928499727]}}]}